<?xml version='1.0' encoding='UTF-8'?>
<osm version="0.6" generator="osmfilter 1.4.5">
	<bounds minlat="41.9053" minlon="21.2537" maxlat="42.088" maxlon="21.6959"/>
	<node id="470409981" lat="42.0690911" lon="21.3001786" version="11" timestamp="2021-04-11T12:09:56Z" changeset="102735601" uid="7140745" user="MatejMecka">
		<tag k="amenity" v="place_of_worship"/>
		<tag k="building" v="monastery"/>
		<tag k="denomination" v="orthodox"/>
		<tag k="name" v="Манастир Св. Ѓорѓија"/>
		<tag k="population" v="0"/>
		<tag k="religion" v="christian"/>
		<tag k="tourism" v="attraction"/>
		<tag k="wikidata" v="Q24084121"/>
		<tag k="wikipedia" v="mk:Црква „Св. Ѓорѓи“ - Кучково"/>
	</node>
	<node id="1831180502" lat="41.9505936" lon="21.2991931" version="8" timestamp="2019-08-20T16:44:19Z" changeset="73548632" uid="10147140" user="HenryFjord">
		<tag k="amenity" v="place_of_worship"/>
		<tag k="denomination" v="orthodox"/>
		<tag k="historic" v="monument"/>
		<tag k="int_name" v="Manastir Sv. Andrej"/>
		<tag k="name" v="Манастир Св. Андреј"/>
		<tag k="name:en" v="Monastery St. Andrej"/>
		<tag k="name:tr" v="Monastery St. Andrej"/>
		<tag k="place_of_worship:type" v="monastery"/>
		<tag k="religion" v="christian"/>
		<tag k="tourism" v="attraction"/>
	</node>
	<node id="1831247821" lat="41.951833" lon="21.3042042" version="3" timestamp="2013-01-29T09:43:07Z" changeset="14832444" uid="131662" user="borces">
		<tag k="amenity" v="place_of_worship"/>
		<tag k="denomination" v="orthodox"/>
		<tag k="int_name" v="Sv. Nikola"/>
		<tag k="name" v="Св. Никола"/>
		<tag k="place_of_worship:type" v="monastery"/>
		<tag k="religion" v="christian"/>
		<tag k="tourism" v="attraction"/>
	</node>
	<node id="4271160712" lat="41.9936684" lon="21.4317487" version="3" timestamp="2018-07-01T09:42:26Z" changeset="60317888" uid="6970734" user="Dekacc">
		<tag k="historic" v="monument"/>
		<tag k="name" v="Бегова кула"/>
		<tag k="name:en" v="Bey&#39;s Tower"/>
		<tag k="name:tr" v="Bey kulesi"/>
		<tag k="tourism" v="attraction"/>
	</node>
	<node id="4413612189" lat="41.9959432" lon="21.4367853" version="2" timestamp="2019-06-08T14:01:45Z" changeset="71051705" uid="158784" user="bjankuloski">
		<tag k="name" v="Палата „Борис Сарафов“"/>
		<tag k="name:en" v="Boris Sarafov Palace"/>
		<tag k="tourism" v="attraction"/>
	</node>
	<node id="4440746389" lat="41.9930933" lon="21.4298952" version="3" timestamp="2019-03-31T22:42:52Z" changeset="68737236" uid="361707" user="0xF00F">
		<tag k="name" v="Wall Street Bull"/>
		<tag k="name:en" v="Wall Street Bull"/>
		<tag k="name:mk" v="Wall Street Bull"/>
		<tag k="tourism" v="attraction"/>
	</node>
	<node id="4735163331" lat="41.9814007" lon="21.4210216" version="3" timestamp="2019-05-27T07:25:37Z" changeset="70650979" uid="158784" user="bjankuloski">
		<tag k="addr:housenumber" v="129/7"/>
		<tag k="addr:postcode" v="1000"/>
		<tag k="addr:street" v="Тодор Александров"/>
		<tag k="name" v="Мој дом"/>
		<tag k="name:en" v="My Home"/>
		<tag k="name:mk" v="Тодор Александров 129/8"/>
		<tag k="tourism" v="attraction"/>
	</node>
	<node id="4910340421" lat="42.0007501" lon="21.4367968" version="1" timestamp="2017-06-12T08:17:49Z" changeset="49459880" uid="4778773" user="Jackob Drive">
		<tag k="name:en" v="Old bazaar"/>
		<tag k="tourism" v="attraction"/>
	</node>
	<node id="5010846621" lat="42.0007057" lon="21.4365749" version="1" timestamp="2017-08-03T06:16:29Z" changeset="50796876" uid="5499990" user="adrain728">
		<tag k="name:en" v="Old Bazar, Skopje"/>
		<tag k="tourism" v="attraction"/>
	</node>
	<node id="5901740885" lat="41.9953348" lon="21.4321351" version="1" timestamp="2018-09-12T12:24:36Z" changeset="62518958" uid="6066920" user="KorBorNor">
		<tag k="name:en" v="Mother Teresa Old House Place"/>
		<tag k="tourism" v="attraction"/>
	</node>
	<node id="5964767388" lat="41.9512916" lon="21.2993602" version="1" timestamp="2018-10-07T18:43:39Z" changeset="63286718" uid="6066920" user="KorBorNor">
		<tag k="name:en" v="Boat trip"/>
		<tag k="tourism" v="attraction"/>
	</node>
	<node id="6054049785" lat="42.0024627" lon="21.4391327" version="1" timestamp="2018-11-12T06:18:22Z" changeset="64393596" uid="9047835" user="YunDi88">
		<tag k="tourism" v="attraction"/>
	</node>
	<node id="6959482985" lat="41.9529924" lon="21.2980962" version="1" timestamp="2019-11-09T08:43:08Z" changeset="76838937" uid="9497227" user="AnttonC">
		<tag k="name" v="Изложбен центар"/>
		<tag k="name:en" v="Exhibition center"/>
		<tag k="opening_hours" v="Tu-Su 10:00-15:00"/>
		<tag k="tourism" v="attraction"/>
		<tag k="website" v="http://matka.com.mk"/>
	</node>
	<node id="9200216349" lat="42.0063441" lon="21.4338174" version="1" timestamp="2021-10-25T16:02:04Z" changeset="112954668" uid="9047835" user="YunDi88">
		<tag k="name" v="Altiak Teke Sadi"/>
		<tag k="tourism" v="attraction"/>
	</node>
	<way id="32463336" version="12" timestamp="2016-04-02T20:38:00Z" changeset="38255588" uid="3537321" user="Wikidata">
		<nd ref="364977606"/>
		<nd ref="364977608"/>
		<nd ref="2593794285"/>
		<nd ref="364977610"/>
		<nd ref="3816845190"/>
		<nd ref="364977612"/>
		<nd ref="364977613"/>
		<nd ref="3816845192"/>
		<nd ref="3816845187"/>
		<nd ref="3816845199"/>
		<nd ref="364977614"/>
		<nd ref="3122650550"/>
		<nd ref="3122650552"/>
		<nd ref="3122650553"/>
		<nd ref="3122650551"/>
		<nd ref="364977616"/>
		<nd ref="3816845205"/>
		<nd ref="364977618"/>
		<nd ref="364977620"/>
		<nd ref="364977622"/>
		<nd ref="2593794162"/>
		<nd ref="2593794179"/>
		<nd ref="3902228808"/>
		<nd ref="1870339086"/>
		<nd ref="364977623"/>
		<nd ref="373759453"/>
		<nd ref="3816845188"/>
		<nd ref="3816845201"/>
		<nd ref="3816845206"/>
		<nd ref="364977629"/>
		<nd ref="3816845204"/>
		<nd ref="3816845189"/>
		<nd ref="3816845186"/>
		<nd ref="364977631"/>
		<nd ref="364977606"/>
		<tag k="historic" v="archaeological_site"/>
		<tag k="historic:civilization" v="ancient_roman"/>
		<tag k="historic:period" v="principate"/>
		<tag k="int_name" v="Skupi"/>
		<tag k="name" v="Скупи"/>
		<tag k="name:en" v="Scupi"/>
		<tag k="tourism" v="attraction"/>
		<tag k="wikidata" v="Q149203"/>
		<tag k="wikipedia" v="mk:Скупи"/>
	</way>
	<way id="32855069" version="8" timestamp="2018-01-14T17:19:42Z" changeset="55437341" uid="6970734" user="Dekacc">
		<nd ref="370104350"/>
		<nd ref="370104351"/>
		<nd ref="5339314493"/>
		<nd ref="370104352"/>
		<nd ref="5339314494"/>
		<nd ref="5339314495"/>
		<nd ref="5339314496"/>
		<nd ref="370104353"/>
		<nd ref="370104350"/>
		<tag k="addr:city" v="Cкoпje"/>
		<tag k="addr:city:en" v="Skopje"/>
		<tag k="addr:country" v="MK"/>
		<tag k="addr:postcode" v="1000"/>
		<tag k="amenity" v="place_of_worship"/>
		<tag k="building" v="church"/>
		<tag k="denomination" v="orthodox"/>
		<tag k="name" v="Св. Димитриј"/>
		<tag k="name:en" v="St. Demetrius Church"/>
		<tag k="name:tr" v="church of st demetrius"/>
		<tag k="religion" v="christian"/>
		<tag k="tourism" v="attraction"/>
		<tag k="wikipedia" v="mk:Црква „Св. Димитриј“ - Скопје"/>
	</way>
	<way id="44038503" version="7" timestamp="2019-05-25T22:52:03Z" changeset="70620946" uid="158784" user="bjankuloski">
		<nd ref="559902281"/>
		<nd ref="559902283"/>
		<nd ref="559902286"/>
		<nd ref="559902287"/>
		<nd ref="559902281"/>
		<tag k="addr:city" v="Cкoпje"/>
		<tag k="addr:city:en" v="Skopje"/>
		<tag k="addr:country" v="MK"/>
		<tag k="addr:postcode" v="1000"/>
		<tag k="building" v="yes"/>
		<tag k="name" v="Саат-кула"/>
		<tag k="name:tr" v="Saat kulesi"/>
		<tag k="tourism" v="attraction"/>
		<tag k="wikidata" v="Q1131501"/>
	</way>
	<way id="44038732" version="8" timestamp="2018-10-25T12:27:32Z" changeset="63865594" uid="102162" user="-WI-">
		<nd ref="559905942"/>
		<nd ref="559905944"/>
		<nd ref="559905945"/>
		<nd ref="1859857522"/>
		<nd ref="1859857517"/>
		<nd ref="1859857563"/>
		<nd ref="1859857553"/>
		<nd ref="559905946"/>
		<nd ref="559905942"/>
		<tag k="addr:city" v="Cкoпje"/>
		<tag k="addr:city:en" v="Skopje"/>
		<tag k="addr:country" v="MK"/>
		<tag k="addr:postcode" v="1000"/>
		<tag k="amenity" v="place_of_worship"/>
		<tag k="building" v="mosque"/>
		<tag k="name" v="Иса-бегова џамија"/>
		<tag k="name:sq" v="Xhamija e Isa Begit"/>
		<tag k="religion" v="muslim"/>
		<tag k="tourism" v="attraction"/>
		<tag k="wikidata" v="Q1509599"/>
	</way>
	<way id="44038943" version="9" timestamp="2019-10-19T06:00:35Z" changeset="75920460" uid="10392631" user="gnckdr">
		<nd ref="559906976"/>
		<nd ref="559906977"/>
		<nd ref="559906979"/>
		<nd ref="559906981"/>
		<nd ref="559906976"/>
		<tag k="addr:city" v="Cкoпje"/>
		<tag k="addr:city:en" v="Skopje"/>
		<tag k="addr:country" v="MK"/>
		<tag k="addr:postcode" v="1000"/>
		<tag k="alt_name" v="Исхак-бегова Џамија"/>
		<tag k="amenity" v="place_of_worship"/>
		<tag k="building" v="mosque"/>
		<tag k="int_name" v="Aladža džamija"/>
		<tag k="name" v="Алаџа-џамија"/>
		<tag k="name:en" v="Allaxha Mosque"/>
		<tag k="name:mk" v="Алаџа-џамија"/>
		<tag k="name:sq" v="Xhamija e Allaxhes"/>
		<tag k="name:tr" v="Alaca Camii"/>
		<tag k="religion" v="muslim"/>
		<tag k="tourism" v="attraction"/>
		<tag k="wikidata" v="Q1009860"/>
	</way>
	<way id="44039295" version="5" timestamp="2020-06-30T17:17:10Z" changeset="87359725" uid="9351297" user="Sylejman">
		<nd ref="559909598"/>
		<nd ref="1864614270"/>
		<nd ref="1864614252"/>
		<nd ref="559909601"/>
		<nd ref="1864614251"/>
		<nd ref="559909602"/>
		<nd ref="1864614280"/>
		<nd ref="559909603"/>
		<nd ref="1864614268"/>
		<nd ref="559909598"/>
		<tag k="addr:city" v="Cкoпje"/>
		<tag k="addr:city:en" v="Skopje"/>
		<tag k="addr:country" v="MK"/>
		<tag k="addr:postcode" v="1000"/>
		<tag k="addr:street" v="Цветан Димов"/>
		<tag k="amenity" v="place_of_worship"/>
		<tag k="building" v="mosque"/>
		<tag k="int_name" v="Jaja-pašina džamija"/>
		<tag k="name" v="Јаја-пашина џамија"/>
		<tag k="name:en" v="Yaya Pacha Mosque"/>
		<tag k="name:mk" v="Yahya paşa cami-Јаја-пашина џамија"/>
		<tag k="name:sq" v="Xhamia e Jahja Pashës"/>
		<tag k="religion" v="muslim"/>
		<tag k="tourism" v="attraction"/>
	</way>
	<way id="123273638" version="9" timestamp="2015-07-11T19:02:12Z" changeset="32568965" uid="1468248" user="TheBlackMan">
		<nd ref="1375310254"/>
		<nd ref="1375310192"/>
		<nd ref="369669415"/>
		<nd ref="1375310274"/>
		<nd ref="1375310254"/>
		<tag k="addr:city" v="Cкoпje"/>
		<tag k="addr:city:en" v="Skopje"/>
		<tag k="addr:country" v="MK"/>
		<tag k="addr:postcode" v="1000"/>
		<tag k="amenity" v="place_of_worship"/>
		<tag k="building" v="monastery"/>
		<tag k="denomination" v="orthodox"/>
		<tag k="int_name" v="Manastir Sv. Pantelejmon"/>
		<tag k="layer" v="2"/>
		<tag k="name" v="Манастир Св. Пантелејмон"/>
		<tag k="name:en" v="Monastery Sv. Pantelejmon"/>
		<tag k="place_of_worship:type" v="monastery"/>
		<tag k="religion" v="christian"/>
		<tag k="tourism" v="attraction"/>
		<tag k="wikipedia" v="en:Church of St. Panteleimon (Gorno Nerezi)"/>
	</way>
	<way id="123273640" version="5" timestamp="2019-05-16T13:11:26Z" changeset="70318404" uid="158784" user="bjankuloski">
		<nd ref="1375310267"/>
		<nd ref="1375310190"/>
		<nd ref="1375310189"/>
		<nd ref="4827101569"/>
		<nd ref="1375310214"/>
		<nd ref="4827100983"/>
		<nd ref="1375310252"/>
		<nd ref="4827101570"/>
		<nd ref="4827101971"/>
		<nd ref="1375310261"/>
		<nd ref="1375310297"/>
		<nd ref="1375310287"/>
		<nd ref="1375310284"/>
		<nd ref="1375310267"/>
		<tag k="int_name" v="Macedonian Ethno Village"/>
		<tag k="landuse" v="commercial"/>
		<tag k="name" v="Македонско село"/>
		<tag k="tourism" v="attraction"/>
	</way>
	<way id="134283604" version="3" timestamp="2013-05-04T01:58:19Z" changeset="15967586" uid="181135" user="Manu1400">
		<nd ref="1477313449"/>
		<nd ref="1477313380"/>
		<nd ref="1477313447"/>
		<nd ref="1477313423"/>
		<nd ref="1477313446"/>
		<nd ref="1477313445"/>
		<nd ref="1477313430"/>
		<nd ref="1477313365"/>
		<nd ref="1477313356"/>
		<nd ref="1477313357"/>
		<nd ref="1477313323"/>
		<nd ref="1477313477"/>
		<nd ref="1477313274"/>
		<nd ref="1477313427"/>
		<nd ref="1477313484"/>
		<nd ref="1477313432"/>
		<nd ref="1477313449"/>
		<tag k="boundary" v="area"/>
		<tag k="name" v="Девојачки Камен"/>
		<tag k="tourism" v="attraction"/>
	</way>
	<way id="161468292" version="6" timestamp="2017-08-31T09:48:47Z" changeset="51607411" uid="1815671" user="coloredstone">
		<nd ref="1734335808"/>
		<nd ref="2327187259"/>
		<nd ref="1734335809"/>
		<nd ref="2381484692"/>
		<nd ref="2381484629"/>
		<nd ref="2381484613"/>
		<nd ref="1734335806"/>
		<nd ref="2393025368"/>
		<nd ref="2327187260"/>
		<nd ref="2327187269"/>
		<nd ref="2327187266"/>
		<nd ref="1734335807"/>
		<nd ref="5071179700"/>
		<nd ref="1734335808"/>
		<tag k="int_name" v="Hipodrom Volkovo"/>
		<tag k="is_in" v="Volkovo"/>
		<tag k="landuse" v="recreation_ground"/>
		<tag k="leisure" v="pitch"/>
		<tag k="name" v="Хиподром Волково"/>
		<tag k="name:en" v="Hipodrom Volkovo"/>
		<tag k="sport" v="equestrian"/>
		<tag k="tourism" v="attraction"/>
	</way>
	<way id="172178304" version="8" timestamp="2019-05-25T22:52:03Z" changeset="70620946" uid="158784" user="bjankuloski">
		<nd ref="1831108086"/>
		<nd ref="1831108082"/>
		<nd ref="1831108084"/>
		<nd ref="1831108083"/>
		<nd ref="5841674948"/>
		<nd ref="5841674949"/>
		<nd ref="5841674950"/>
		<nd ref="5841674947"/>
		<nd ref="1831108086"/>
		<tag k="addr:city" v="Cкoпje"/>
		<tag k="addr:city:en" v="Skopje"/>
		<tag k="addr:country" v="MK"/>
		<tag k="addr:postcode" v="1000"/>
		<tag k="amenity" v="place_of_worship"/>
		<tag k="building" v="mosque"/>
		<tag k="int_name" v="Mustafa-pašina džamija"/>
		<tag k="name" v="Мустафа-пашина џамија"/>
		<tag k="name:bg" v="Мустафа паша джамия"/>
		<tag k="name:de" v="Mustafa-Pascha-Moschee"/>
		<tag k="name:en" v="Mustafa Pasha&#39;s Mosque"/>
		<tag k="name:fr" v="Mosquée Mustafa Pacha"/>
		<tag k="name:mk" v="Мустафа-пашина џамија"/>
		<tag k="name:pl" v="Meczet Mustafy Paszy"/>
		<tag k="name:ru" v="Мечеть Мустафы-паши"/>
		<tag k="name:rw" v="Umusigiti wa Mustafa Pasha"/>
		<tag k="name:sq" v="Xhamia e Mustafë Pashës"/>
		<tag k="name:sr" v="Мустафа-пашина џамија"/>
		<tag k="name:tr" v="Mustafa Paşa Camii"/>
		<tag k="religion" v="muslim"/>
		<tag k="tourism" v="attraction"/>
		<tag k="wikidata" v="Q1267418"/>
		<tag k="wikipedia" v="mk:Мустафа-пашина џамија"/>
	</way>
	<way id="172191987" version="3" timestamp="2012-11-16T05:13:12Z" changeset="13890309" uid="152289" user="cgu66">
		<nd ref="1831247812"/>
		<nd ref="1831247743"/>
		<nd ref="1831247813"/>
		<nd ref="1831247884"/>
		<nd ref="1831247812"/>
		<tag k="amenity" v="place_of_worship"/>
		<tag k="building" v="church"/>
		<tag k="denomination" v="orthodox"/>
		<tag k="int_name" v="Sveta Bogorodica - Matka"/>
		<tag k="name" v="Света Богородица - Матка"/>
		<tag k="place_of_worship:type" v="monastery"/>
		<tag k="religion" v="christian"/>
		<tag k="tourism" v="attraction"/>
	</way>
	<way id="175265123" version="14" timestamp="2019-10-19T06:37:34Z" changeset="75921091" uid="10392631" user="gnckdr">
		<nd ref="1858800091"/>
		<nd ref="1858800153"/>
		<nd ref="1858800251"/>
		<nd ref="1880502639"/>
		<nd ref="1858800108"/>
		<nd ref="1880502637"/>
		<nd ref="1858800091"/>
		<tag k="addr:city" v="Cкoпje"/>
		<tag k="addr:city:en" v="Skopje"/>
		<tag k="addr:country" v="MK"/>
		<tag k="addr:postcode" v="1000"/>
		<tag k="amenity" v="place_of_worship"/>
		<tag k="building" v="church"/>
		<tag k="denomination" v="orthodox"/>
		<tag k="name" v="Соборен храм Свети Климент Охридски"/>
		<tag k="name:en" v="Church of St. Clement of Ohrid"/>
		<tag k="name:tr" v="Ohri Aziz Clement Katedral Kilisesi"/>
		<tag k="religion" v="christian"/>
		<tag k="tourism" v="attraction"/>
		<tag k="wikidata" v="Q1758749"/>
		<tag k="wikipedia" v="en:Church of St. Clement of Ohrid"/>
	</way>
	<way id="180360206" version="14" timestamp="2020-12-05T18:38:41Z" changeset="95344418" uid="11978982" user="mappinglander">
		<nd ref="1908058066"/>
		<nd ref="1908058054"/>
		<nd ref="1908075920"/>
		<nd ref="1908058076"/>
		<nd ref="1908058043"/>
		<nd ref="1908058050"/>
		<nd ref="1908058048"/>
		<nd ref="1908058061"/>
		<nd ref="1908058036"/>
		<tag k="bridge" v="aqueduct"/>
		<tag k="historic" v="aqueduct"/>
		<tag k="historic:civilization" v="byzantine"/>
		<tag k="int_name" v="Akvadukt Skopje"/>
		<tag k="layer" v="1"/>
		<tag k="name" v="Аквадукт Скопје"/>
		<tag k="name:en" v="Skopje Aqueduct"/>
		<tag k="name:pl" v="Akwedukt w Skopje"/>
		<tag k="tourism" v="attraction"/>
		<tag k="wall" v="dry_stone"/>
		<tag k="wikidata" v="Q862032"/>
		<tag k="wikipedia" v="en:Skopje Aqueduct"/>
	</way>
	<way id="182451777" version="4" timestamp="2017-08-30T16:26:50Z" changeset="51586284" uid="1815671" user="coloredstone">
		<nd ref="1928050695"/>
		<nd ref="5069595320"/>
		<nd ref="1928050658"/>
		<nd ref="1928050701"/>
		<nd ref="1928050699"/>
		<nd ref="1928050641"/>
		<nd ref="1928050687"/>
		<nd ref="1928050666"/>
		<nd ref="1928050695"/>
		<tag k="int_name" v="Karting Klub"/>
		<tag k="is_in" v="Волково"/>
		<tag k="leisure" v="stadium"/>
		<tag k="name" v="Картинг Клуб"/>
		<tag k="name:en" v="Karting Club"/>
		<tag k="sport" v="karting"/>
		<tag k="tourism" v="attraction"/>
	</way>
	<way id="183590617" version="1" timestamp="2012-09-30T15:59:12Z" changeset="13311107" uid="131662" user="borces">
		<nd ref="1939982576"/>
		<nd ref="1939982573"/>
		<nd ref="1939982565"/>
		<nd ref="1939982572"/>
		<nd ref="1939982568"/>
		<nd ref="1939982567"/>
		<nd ref="1939982576"/>
		<tag k="amenity" v="place_of_worship"/>
		<tag k="denomination" v="orthodox"/>
		<tag k="int_name" v="Manastir Sv. Ilija"/>
		<tag k="name" v="Манастир Св. Илија"/>
		<tag k="name:en" v="Monastery of St. Elijah"/>
		<tag k="religion" v="christian"/>
		<tag k="tourism" v="attraction"/>
	</way>
	<way id="189884671" version="10" timestamp="2021-03-07T16:18:50Z" changeset="100581538" uid="7140745" user="MatejMecka">
		<nd ref="368276528"/>
		<nd ref="5468966093"/>
		<nd ref="5468966094"/>
		<nd ref="1861064672"/>
		<nd ref="1868776873"/>
		<nd ref="1868776805"/>
		<nd ref="2392240564"/>
		<nd ref="2392240565"/>
		<nd ref="2392240563"/>
		<nd ref="2004962799"/>
		<nd ref="2004962794"/>
		<nd ref="5468966089"/>
		<nd ref="5468966092"/>
		<nd ref="5468966090"/>
		<nd ref="5468966091"/>
		<nd ref="368276528"/>
		<tag k="addr:city" v="Cкoпje"/>
		<tag k="addr:city:en" v="Skopje"/>
		<tag k="addr:country" v="MK"/>
		<tag k="addr:postcode" v="1000"/>
		<tag k="addr:street" v="Boulevard 8mi September"/>
		<tag k="email" v="akva.park@scboristrajkovski.gov.mk"/>
		<tag k="int_name" v="Aquapark"/>
		<tag k="leisure" v="water_park"/>
		<tag k="name" v="Аквапарк"/>
		<tag k="name:en" v="Aquapark"/>
		<tag k="opening_hours" v="May-Sep: 10:00-20:00"/>
		<tag k="tourism" v="attraction"/>
		<tag k="website" v="http://www.salaboristrajkovski.gov.mk/kapaciteti/en/akva-park"/>
	</way>
	<way id="229939246" version="4" timestamp="2019-05-14T05:15:14Z" changeset="70217166" uid="158784" user="bjankuloski">
		<nd ref="2384748625"/>
		<nd ref="2384748611"/>
		<nd ref="2384748608"/>
		<nd ref="2384748623"/>
		<nd ref="2384748625"/>
		<tag k="int_name" v="Mileniumski Krst"/>
		<tag k="man_made" v="cross"/>
		<tag k="name" v="Милениумски крст"/>
		<tag k="name:en" v="Millennium Cross"/>
		<tag k="name:pl" v="Krzyż milenijny"/>
		<tag k="tourism" v="attraction"/>
	</way>
	<way id="231344771" version="6" timestamp="2016-04-02T20:38:33Z" changeset="38255588" uid="3537321" user="Wikidata">
		<nd ref="2397354864"/>
		<nd ref="2397354885"/>
		<nd ref="2397354862"/>
		<nd ref="2397354876"/>
		<nd ref="2397354871"/>
		<nd ref="2397354870"/>
		<nd ref="2397354863"/>
		<nd ref="2397354886"/>
		<nd ref="2397354855"/>
		<nd ref="2397354853"/>
		<nd ref="2397354866"/>
		<nd ref="2397354864"/>
		<tag k="historic" v="archaeological_site"/>
		<tag k="historic:civilization" v="neolithic"/>
		<tag k="int_name" v="Tumba Madžari"/>
		<tag k="name" v="Тумба Маџари"/>
		<tag k="name:en" v="Tumba Madzhari"/>
		<tag k="tourism" v="attraction"/>
		<tag k="wikidata" v="Q3408436"/>
		<tag k="wikipedia" v="mk:Тумба (Маџари)"/>
	</way>
	<way id="474869860" version="4" timestamp="2019-10-19T06:50:19Z" changeset="75921367" uid="10392631" user="gnckdr">
		<nd ref="1908098430"/>
		<nd ref="4687310378"/>
		<nd ref="4687310379"/>
		<nd ref="310291590"/>
		<nd ref="1908098428"/>
		<nd ref="1908098430"/>
		<tag k="amenity" v="marketplace"/>
		<tag k="building" v="yes"/>
		<tag k="name" v="Турска Чаршија"/>
		<tag k="name:bg" v="Стара скопска чаршия"/>
		<tag k="name:de" v="Alter Basar"/>
		<tag k="name:en" v="Turkish Bazaar"/>
		<tag k="name:fr" v="Vieux bazar"/>
		<tag k="name:it" v="Vecchio Bazar"/>
		<tag k="name:ja" v="スタラ・チャルシヤ"/>
		<tag k="name:ru" v="Старая Чаршия"/>
		<tag k="name:sq" v="Çarshia e vjetër e Shkupit"/>
		<tag k="name:sr" v="Стара скопска чаршија"/>
		<tag k="name:tr" v="Üsküp Türk Çarşısı"/>
		<tag k="tourism" v="attraction"/>
		<tag k="wikidata" v="Q387"/>
		<tag k="wikipedia" v="mk:Стара скопска чаршија"/>
	</way>
	<way id="474873958" version="4" timestamp="2019-05-16T12:44:27Z" changeset="70317238" uid="158784" user="bjankuloski">
		<nd ref="1830951707"/>
		<nd ref="4431829374"/>
		<nd ref="1881184546"/>
		<nd ref="1881184631"/>
		<nd ref="1881184593"/>
		<nd ref="1881184551"/>
		<nd ref="1881184678"/>
		<nd ref="1830951691"/>
		<nd ref="393713609"/>
		<nd ref="393713611"/>
		<nd ref="393713613"/>
		<nd ref="393713619"/>
		<nd ref="393713617"/>
		<nd ref="1830951705"/>
		<nd ref="1830951701"/>
		<nd ref="1830951684"/>
		<nd ref="1830951679"/>
		<nd ref="393713781"/>
		<nd ref="4128439179"/>
		<nd ref="4687349454"/>
		<nd ref="4431828723"/>
		<nd ref="1881184639"/>
		<nd ref="1881184569"/>
		<nd ref="1881184647"/>
		<nd ref="1881184637"/>
		<nd ref="1881184685"/>
		<nd ref="1881184597"/>
		<nd ref="1881184543"/>
		<nd ref="1881184561"/>
		<nd ref="1881184698"/>
		<nd ref="1881184626"/>
		<nd ref="1881184605"/>
		<nd ref="6381974614"/>
		<nd ref="1881184630"/>
		<nd ref="1881184682"/>
		<nd ref="1881184635"/>
		<nd ref="1881184588"/>
		<nd ref="1881184559"/>
		<nd ref="1881184557"/>
		<nd ref="1881184642"/>
		<nd ref="1881184676"/>
		<nd ref="1881184666"/>
		<nd ref="1881184634"/>
		<nd ref="1881184609"/>
		<nd ref="1881184572"/>
		<nd ref="1881184586"/>
		<nd ref="1881184567"/>
		<nd ref="1881184570"/>
		<nd ref="1881184668"/>
		<nd ref="1881184539"/>
		<nd ref="1830951685"/>
		<nd ref="1830951711"/>
		<nd ref="6381974528"/>
		<nd ref="6381974529"/>
		<nd ref="1830951697"/>
		<nd ref="6381974530"/>
		<nd ref="6381974531"/>
		<nd ref="6381974532"/>
		<nd ref="1830951688"/>
		<nd ref="1881184640"/>
		<nd ref="369750026"/>
		<nd ref="6381974533"/>
		<nd ref="1881184686"/>
		<nd ref="1830951696"/>
		<nd ref="1830951706"/>
		<nd ref="4687349455"/>
		<nd ref="1830951714"/>
		<nd ref="6381974258"/>
		<nd ref="1830951707"/>
		<tag k="alt_name" v="Тврдина Кале"/>
		<tag k="alt_name:mk" v="Скопска тврдина"/>
		<tag k="alt_name:sr" v="Скопска тврђава"/>
		<tag k="archaeological_site" v="yes"/>
		<tag k="area" v="yes"/>
		<tag k="historic" v="castle"/>
		<tag k="int_name" v="Skopsko Kale"/>
		<tag k="name" v="Скопско кале"/>
		<tag k="name:en" v="Skopje Fortress"/>
		<tag k="name:ru" v="Крепость Скопье"/>
		<tag k="name:sq" v="Kalaja e Shkupit"/>
		<tag k="name:sr" v="Скопско кале"/>
		<tag k="name:tr" v="Üsküp Kalesi"/>
		<tag k="opening_hours" v="07:00-19:00"/>
		<tag k="ruins" v="yes"/>
		<tag k="tourism" v="attraction"/>
		<tag k="wheelchair" v="limited"/>
		<tag k="wikidata" v="Q1262367"/>
		<tag k="wikipedia" v="mk:Скопско Kале"/>
	</way>
	<way id="476192899" version="9" timestamp="2021-07-29T10:09:57Z" changeset="108814898" uid="9281375" user="Hartigan">
		<nd ref="8433354022"/>
		<nd ref="8100885046"/>
		<nd ref="8433354023"/>
		<nd ref="6875389567"/>
		<nd ref="6875389568"/>
		<nd ref="6875389569"/>
		<nd ref="6875389570"/>
		<nd ref="6875389576"/>
		<nd ref="6875389577"/>
		<nd ref="6875389578"/>
		<nd ref="6875389579"/>
		<nd ref="6875389573"/>
		<nd ref="6875389580"/>
		<nd ref="6875389572"/>
		<nd ref="6875389581"/>
		<nd ref="6875389582"/>
		<nd ref="6875390087"/>
		<nd ref="6875390086"/>
		<nd ref="6875390085"/>
		<nd ref="6875389584"/>
		<nd ref="6875389583"/>
		<nd ref="8430359813"/>
		<nd ref="8430359812"/>
		<nd ref="4698327691"/>
		<nd ref="6875390088"/>
		<nd ref="6875390089"/>
		<nd ref="6875390090"/>
		<nd ref="6875390091"/>
		<nd ref="6875390092"/>
		<nd ref="6875390093"/>
		<nd ref="6875390094"/>
		<nd ref="6875389574"/>
		<nd ref="6875390095"/>
		<nd ref="6875389575"/>
		<nd ref="6875390103"/>
		<nd ref="6875390102"/>
		<nd ref="6875390101"/>
		<nd ref="6875390100"/>
		<nd ref="6875390099"/>
		<nd ref="6875390098"/>
		<nd ref="6875390097"/>
		<nd ref="6875390096"/>
		<nd ref="8433354022"/>
		<tag k="area" v="yes"/>
		<tag k="bridge:structure" v="beam"/>
		<tag k="layer" v="1"/>
		<tag k="man_made" v="bridge"/>
		<tag k="name" v="Мост на уметноста"/>
		<tag k="name:en" v="Bridge of Artists"/>
		<tag k="tourism" v="attraction"/>
	</way>
	<relation id="5360060" version="3" timestamp="2017-03-20T11:04:40Z" changeset="47009177" uid="339581" user="nyuriks">
		<member type="way" ref="77127892" role="inner"/>
		<member type="way" ref="77127897" role="outer"/>
		<tag k="addr:city" v="Cкoпje"/>
		<tag k="addr:city:en" v="Skopje"/>
		<tag k="addr:country" v="MK"/>
		<tag k="addr:postcode" v="1000"/>
		<tag k="building" v="yes"/>
		<tag k="int_name" v="Kapan AN"/>
		<tag k="name" v="Капан АН"/>
		<tag k="opening_hours" v="24/7"/>
		<tag k="tourism" v="attraction"/>
		<tag k="type" v="multipolygon"/>
		<tag k="wheelchair" v="limited"/>
		<tag k="wikidata" v="Q1283741"/>
		<tag k="wikipedia" v="mk:Капан ан"/>
	</relation>
	<relation id="5360061" version="4" timestamp="2019-05-25T22:52:05Z" changeset="70620946" uid="158784" user="bjankuloski">
		<member type="way" ref="77403927" role="outer"/>
		<member type="way" ref="77403926" role="inner"/>
		<tag k="addr:city" v="Cкoпje"/>
		<tag k="addr:city:en" v="Skopje"/>
		<tag k="addr:country" v="MK"/>
		<tag k="addr:postcode" v="1000"/>
		<tag k="amenity" v="university"/>
		<tag k="building" v="yes"/>
		<tag k="description" v="painting academy"/>
		<tag k="name" v="Сули-ан - Факултет за ликовна уметност"/>
		<tag k="name:en" v="Faculty of Visual Arts - Suli An"/>
		<tag k="tourism" v="attraction"/>
		<tag k="type" v="multipolygon"/>
		<tag k="wikidata" v="Q3085319"/>
		<tag k="wikipedia" v="mk:Сули ан"/>
	</relation>
	<relation id="6145127" version="5" timestamp="2019-10-19T06:48:35Z" changeset="75921329" uid="10392631" user="gnckdr">
		<member type="way" ref="410924972" role="inner"/>
		<member type="way" ref="172178303" role="outer"/>
		<tag k="amenity" v="place_of_worship"/>
		<tag k="building" v="church"/>
		<tag k="denomination" v="orthodox"/>
		<tag k="int_name" v="Sveti Spas"/>
		<tag k="name" v="Свети Спас"/>
		<tag k="name:bg" v="Свети Спас"/>
		<tag k="name:en" v="Church of the Ascension of Jesus"/>
		<tag k="name:fr" v="Église Saint-Sauveur"/>
		<tag k="name:sr" v="Црква светог Спаса"/>
		<tag k="name:tr" v="İsa’nın Yükseliş Kilisesi"/>
		<tag k="name:zh" v="圣斯帕斯教堂"/>
		<tag k="opening_hours" v="Tu-Fr 09:00-17:00; Sa-Su 09:00-15:00"/>
		<tag k="religion" v="christian"/>
		<tag k="tourism" v="attraction"/>
		<tag k="type" v="multipolygon"/>
		<tag k="wikidata" v="Q1283775"/>
		<tag k="wikipedia" v="mk:Црква „Св. Спас“ - Скопје"/>
	</relation>
</osm>
